KUIPER-00008            
1 63724U 25088A   25317.52559427  .00021800  00000+0  17468-2 0  9990
2 63724  51.8908 256.5579 0011619  76.0748 284.1515 15.00012915 30636
KUIPER-00009            
1 63725U 25088B   25317.22170654  .00011077  00000+0  14647-2 0  9990
2 63725  51.9011 261.5841 0013469  73.2135 287.0304 14.80311048 30538
KUIPER-00010            
1 63726U 25088C   25317.48721649  .00009203  00000+0  12256-2 0  9997
2 63726  51.9001 236.9113 0012337 117.3449 242.8770 14.80203896 30523
KUIPER-00011            
1 63727U 25088D   25317.37911039  .00019879  00000+0  26498-2 0  9993
2 63727  51.9002 244.9825 0014643  90.8926 269.3714 14.79532602 30532
KUIPER-00012            
1 63728U 25088E   25317.75003471 -.01127564  00000+0 -98897-1 0  9993
2 63728  51.8882 227.1403 0010358 104.7381  24.1923 14.99353002  4786
KUIPER-00013            
1 63729U 25088F   25317.56296965  .00005167  00000+0  70511-3 0  9991
2 63729  51.8994 261.5920 0008975  12.0734 348.0441 14.79990629 30379
KUIPER-00014            
1 63730U 25088G   25317.56141935  .00018151  00000+0  23994-2 0  9998
2 63730  51.9018 262.5696 0009451  68.9546 291.2426 14.79981024 30170
KUIPER-00015            
1 63731U 25088H   25317.57173043  .00015900  00000+0  20230-2 0  9994
2 63731  51.8983 273.9080 0010828  55.6749 304.5237 14.81664116 30476
